SL-4 R/B                
1 39679U 14021B   26030.76043624  .00014203  00000+0  32550-3 0  9992
2 39679  51.6064 162.1361 0099021 324.6731  34.7718 15.37996216650432
ALOS-2                  
1 39766U 14029A   26031.18266150  .00000123  00000+0  23331-4 0  9999
2 39766  97.9227 130.3191 0001465 102.2439 257.8936 14.79472696631324
YAOGAN-29               
1 41038U 15069A   26031.00950874  .00000331  00000+0  47419-4 0  9997
2 41038  98.0190  59.3321 0002823 100.0332 260.1200 14.82949062550299
ASTRO-H (HITOMI)        
1 41337U 16012A   26030.88590963  .00003431  00000+0  20176-3 0  9996
2 41337  30.9982 240.4542 0009929 312.9190  47.0614 15.09722402546511
HXMT (HUIYAN)           
1 42758U 17034A   26030.92314333  .00005297  00000+0  27195-3 0  9999
2 42758  43.0122 226.5595 0032137 353.4935   6.5492 15.16958600476804
CZ-2C R/B               
1 43521U 18054D   26030.80031775  .00271544  27701-4  83308-3 0  9994
2 43521  35.1289 204.8272 0013515 294.9521  64.9813 15.90634628422820
SAOCOM 1A               
1 43641U 18076A   26030.95455492  .00001337  00000+0  17446-3 0  9992
2 43641  97.8864 219.6631 0001416  88.0031 272.1344 14.82148800395772
H-2A R/B                
1 43682U 18084L   26030.53911359  .00023104  00000+0  58078-3 0  9991
2 43682  98.8763 239.8214 0026068 154.2246 206.0301 15.39638505399908
SAOCOM 1B               
1 46265U 20059A   26030.98583269  .00000504  00000+0  69806-4 0  9991
2 46265  97.8861 218.7922 0001349  84.0946 276.0421 14.82152052293166
CSS (TIANHE)            
1 48274U 21035A   26030.17114424  .00032690  00000+0  37481-3 0  9996
2 48274  41.4674  82.2287 0009086  36.5911 323.5548 15.61350410271590
COSMOS 2550             
1 48865U 21056A   26026.13240542 -.00000181  00000+0  32270-6 0  9992
2 48865  67.1441 169.6578 0008309 269.8947  90.1255 15.33840202256938
CZ-2C R/B               
1 52794U 22058K   26030.80384923  .00030426  00000+0  49023-3 0  9997
2 52794  50.1885 152.7783 0042464  40.4297 319.9815 15.51602048204245
