CCSDS_OMM_VERS = 2.0
CREATION_DATE  = 
ORIGINATOR     = 

OBJECT_NAME    = SL-4 R/B
OBJECT_ID      = 2014-021B
CENTER_NAME    = EARTH
REF_FRAME      = TEME
TIME_SYSTEM    = UTC
MEAN_ELEMENT_THEORY = SGP/SGP4

EPOCH          = 2026-01-30T18:15:01.691136
MEAN_MOTION    = 15.37996216
ECCENTRICITY   = .00990215
INCLINATION    = 51.6064
RA_OF_ASC_NODE = 162.1361
ARG_OF_PERICENTER = 324.6731
MEAN_ANOMALY   = 34.7718

EPHEMERIS_TYPE = 0
CLASSIFICATION_TYPE = U
NORAD_CAT_ID   = 39679
ELEMENT_SET_NO = 999
REV_AT_EPOCH   = 65043
BSTAR          = .32550453E-3
MEAN_MOTION_DOT = .14203E-3
MEAN_MOTION_DDOT = 0

CCSDS_OMM_VERS = 2.0
CREATION_DATE  = 
ORIGINATOR     = 

OBJECT_NAME    = ALOS-2
OBJECT_ID      = 2014-029A
CENTER_NAME    = EARTH
REF_FRAME      = TEME
TIME_SYSTEM    = UTC
MEAN_ELEMENT_THEORY = SGP/SGP4

EPOCH          = 2026-01-31T04:23:01.953600
MEAN_MOTION    = 14.79472696
ECCENTRICITY   = .0001465
INCLINATION    = 97.9227
RA_OF_ASC_NODE = 130.3191
ARG_OF_PERICENTER = 102.2439
MEAN_ANOMALY   = 257.8936

EPHEMERIS_TYPE = 0
CLASSIFICATION_TYPE = U
NORAD_CAT_ID   = 39766
ELEMENT_SET_NO = 999
REV_AT_EPOCH   = 63132
BSTAR          = .23331E-4
MEAN_MOTION_DOT = .123E-5
MEAN_MOTION_DDOT = 0

CCSDS_OMM_VERS = 2.0
CREATION_DATE  = 
ORIGINATOR     = 

OBJECT_NAME    = YAOGAN-29
OBJECT_ID      = 2015-069A
CENTER_NAME    = EARTH
REF_FRAME      = TEME
TIME_SYSTEM    = UTC
MEAN_ELEMENT_THEORY = SGP/SGP4

EPOCH          = 2026-01-31T00:13:41.555136
MEAN_MOTION    = 14.82949062
ECCENTRICITY   = .00028233
INCLINATION    = 98.0190
RA_OF_ASC_NODE = 59.3321
ARG_OF_PERICENTER = 100.0332
MEAN_ANOMALY   = 260.1200

EPHEMERIS_TYPE = 0
CLASSIFICATION_TYPE = U
NORAD_CAT_ID   = 41038
ELEMENT_SET_NO = 999
REV_AT_EPOCH   = 55029
BSTAR          = .47419358E-4
MEAN_MOTION_DOT = .331E-5
MEAN_MOTION_DDOT = 0

CCSDS_OMM_VERS = 2.0
CREATION_DATE  = 
ORIGINATOR     = 

OBJECT_NAME    = ASTRO-H (HITOMI)
OBJECT_ID      = 2016-012A
CENTER_NAME    = EARTH
REF_FRAME      = TEME
TIME_SYSTEM    = UTC
MEAN_ELEMENT_THEORY = SGP/SGP4

EPOCH          = 2026-01-30T21:15:42.592032
MEAN_MOTION    = 15.09722402
ECCENTRICITY   = .00099297
INCLINATION    = 30.9982
RA_OF_ASC_NODE = 240.4542
ARG_OF_PERICENTER = 312.9190
MEAN_ANOMALY   = 47.0614

EPHEMERIS_TYPE = 0
CLASSIFICATION_TYPE = U
NORAD_CAT_ID   = 41337
ELEMENT_SET_NO = 999
REV_AT_EPOCH   = 54651
BSTAR          = .20175709E-3
MEAN_MOTION_DOT = .3431E-4
MEAN_MOTION_DDOT = 0

CCSDS_OMM_VERS = 2.0
CREATION_DATE  = 
ORIGINATOR     = 

OBJECT_NAME    = HXMT (HUIYAN)
OBJECT_ID      = 2017-034A
CENTER_NAME    = EARTH
REF_FRAME      = TEME
TIME_SYSTEM    = UTC
MEAN_ELEMENT_THEORY = SGP/SGP4

EPOCH          = 2026-01-30T22:09:19.583712
MEAN_MOTION    = 15.16958600
ECCENTRICITY   = .00321378
INCLINATION    = 43.0122
RA_OF_ASC_NODE = 226.5595
ARG_OF_PERICENTER = 353.4935
MEAN_ANOMALY   = 6.5492

EPHEMERIS_TYPE = 0
CLASSIFICATION_TYPE = U
NORAD_CAT_ID   = 42758
ELEMENT_SET_NO = 999
REV_AT_EPOCH   = 47680
BSTAR          = .27195372E-3
MEAN_MOTION_DOT = .5297E-4
MEAN_MOTION_DDOT = 0

CCSDS_OMM_VERS = 2.0
CREATION_DATE  = 
ORIGINATOR     = 

OBJECT_NAME    = CZ-2C R/B
OBJECT_ID      = 2018-054D
CENTER_NAME    = EARTH
REF_FRAME      = TEME
TIME_SYSTEM    = UTC
MEAN_ELEMENT_THEORY = SGP/SGP4

EPOCH          = 2026-01-30T19:12:27.453600
MEAN_MOTION    = 15.90634628
ECCENTRICITY   = .00135155
INCLINATION    = 35.1289
RA_OF_ASC_NODE = 204.8272
ARG_OF_PERICENTER = 294.9521
MEAN_ANOMALY   = 64.9813

EPHEMERIS_TYPE = 0
CLASSIFICATION_TYPE = U
NORAD_CAT_ID   = 43521
ELEMENT_SET_NO = 999
REV_AT_EPOCH   = 42282
BSTAR          = .83307951E-3
MEAN_MOTION_DOT = .271544E-2
MEAN_MOTION_DDOT = .27700712E-4

CCSDS_OMM_VERS = 2.0
CREATION_DATE  = 
ORIGINATOR     = 

OBJECT_NAME    = SAOCOM 1A
OBJECT_ID      = 2018-076A
CENTER_NAME    = EARTH
REF_FRAME      = TEME
TIME_SYSTEM    = UTC
MEAN_ELEMENT_THEORY = SGP/SGP4

EPOCH          = 2026-01-30T22:54:33.545088
MEAN_MOTION    = 14.82148800
ECCENTRICITY   = .00014169
INCLINATION    = 97.8864
RA_OF_ASC_NODE = 219.6631
ARG_OF_PERICENTER = 88.0031
MEAN_ANOMALY   = 272.1344

EPHEMERIS_TYPE = 0
CLASSIFICATION_TYPE = U
NORAD_CAT_ID   = 43641
ELEMENT_SET_NO = 999
REV_AT_EPOCH   = 39577
BSTAR          = .17446372E-3
MEAN_MOTION_DOT = .1337E-4
MEAN_MOTION_DDOT = 0

CCSDS_OMM_VERS = 2.0
CREATION_DATE  = 
ORIGINATOR     = 

OBJECT_NAME    = H-2A R/B
OBJECT_ID      = 2018-084L
CENTER_NAME    = EARTH
REF_FRAME      = TEME
TIME_SYSTEM    = UTC
MEAN_ELEMENT_THEORY = SGP/SGP4

EPOCH          = 2026-01-30T12:56:19.414176
MEAN_MOTION    = 15.39638505
ECCENTRICITY   = .00260683
INCLINATION    = 98.8763
RA_OF_ASC_NODE = 239.8214
ARG_OF_PERICENTER = 154.2246
MEAN_ANOMALY   = 206.0301

EPHEMERIS_TYPE = 0
CLASSIFICATION_TYPE = U
NORAD_CAT_ID   = 43682
ELEMENT_SET_NO = 999
REV_AT_EPOCH   = 39990
BSTAR          = .58077965E-3
MEAN_MOTION_DOT = .23104E-3
MEAN_MOTION_DDOT = 0

CCSDS_OMM_VERS = 2.0
CREATION_DATE  = 
ORIGINATOR     = 

OBJECT_NAME    = SAOCOM 1B
OBJECT_ID      = 2020-059A
CENTER_NAME    = EARTH
REF_FRAME      = TEME
TIME_SYSTEM    = UTC
MEAN_ELEMENT_THEORY = SGP/SGP4

EPOCH          = 2026-01-30T23:39:35.944416
MEAN_MOTION    = 14.82152052
ECCENTRICITY   = .00013495
INCLINATION    = 97.8861
RA_OF_ASC_NODE = 218.7922
ARG_OF_PERICENTER = 84.0946
MEAN_ANOMALY   = 276.0421

EPHEMERIS_TYPE = 0
CLASSIFICATION_TYPE = U
NORAD_CAT_ID   = 46265
ELEMENT_SET_NO = 999
REV_AT_EPOCH   = 29316
BSTAR          = .69806478E-4
MEAN_MOTION_DOT = .504E-5
MEAN_MOTION_DDOT = 0

CCSDS_OMM_VERS = 2.0
CREATION_DATE  = 
ORIGINATOR     = 

OBJECT_NAME    = CSS (TIANHE)
OBJECT_ID      = 2021-035A
CENTER_NAME    = EARTH
REF_FRAME      = TEME
TIME_SYSTEM    = UTC
MEAN_ELEMENT_THEORY = SGP/SGP4

EPOCH          = 2026-01-30T04:06:26.862336
MEAN_MOTION    = 15.61350410
ECCENTRICITY   = .00090867
INCLINATION    = 41.4674
RA_OF_ASC_NODE = 82.2287
ARG_OF_PERICENTER = 36.5911
MEAN_ANOMALY   = 323.5548

EPHEMERIS_TYPE = 0
CLASSIFICATION_TYPE = U
NORAD_CAT_ID   = 48274
ELEMENT_SET_NO = 999
REV_AT_EPOCH   = 27159
BSTAR          = .3748084E-3
MEAN_MOTION_DOT = .3269E-3
MEAN_MOTION_DDOT = 0

CCSDS_OMM_VERS = 2.0
CREATION_DATE  = 
ORIGINATOR     = 

OBJECT_NAME    = COSMOS 2550
OBJECT_ID      = 2021-056A
CENTER_NAME    = EARTH
REF_FRAME      = TEME
TIME_SYSTEM    = UTC
MEAN_ELEMENT_THEORY = SGP/SGP4

EPOCH          = 2026-01-26T03:10:39.828288
MEAN_MOTION    = 15.33840202
ECCENTRICITY   = .00083094
INCLINATION    = 67.1441
RA_OF_ASC_NODE = 169.6578
ARG_OF_PERICENTER = 269.8947
MEAN_ANOMALY   = 90.1255

EPHEMERIS_TYPE = 0
CLASSIFICATION_TYPE = U
NORAD_CAT_ID   = 48865
ELEMENT_SET_NO = 999
REV_AT_EPOCH   = 25693
BSTAR          = .322698E-6
MEAN_MOTION_DOT = -.181E-5
MEAN_MOTION_DDOT = 0

CCSDS_OMM_VERS = 2.0
CREATION_DATE  = 
ORIGINATOR     = 

OBJECT_NAME    = CZ-2C R/B
OBJECT_ID      = 2022-058K
CENTER_NAME    = EARTH
REF_FRAME      = TEME
TIME_SYSTEM    = UTC
MEAN_ELEMENT_THEORY = SGP/SGP4

EPOCH          = 2026-01-30T19:17:32.573472
MEAN_MOTION    = 15.51602048
ECCENTRICITY   = .00424647
INCLINATION    = 50.1885
RA_OF_ASC_NODE = 152.7783
ARG_OF_PERICENTER = 40.4297
MEAN_ANOMALY   = 319.9815

EPHEMERIS_TYPE = 0
CLASSIFICATION_TYPE = U
NORAD_CAT_ID   = 52794
ELEMENT_SET_NO = 999
REV_AT_EPOCH   = 20424
BSTAR          = .49022816E-3
MEAN_MOTION_DOT = .30426E-3
MEAN_MOTION_DDOT = 0

